{
  "type": "FeatureCollection",
  "features": [
    {
      "type": "Feature",
      "properties": {
        "norad_id": 31899,
        "name": "FENGYUN 1C DEB",
        "group": "fengyun-1c-debris",
        "lat": 0.6557078976911684,
        "lon": -114.87829688849666,
        "alt_km": 866.9517758534275,
        "timestamp": "2025-12-24T16:52:41.817308+00:00",
        "meta_object_name": "FENGYUN 1C DEB",
        "meta_object_id": "1999-025CLA",
        "meta_epoch": "2025-12-22T10:13:44.573376",
        "meta_mean_motion": 13.83542945,
        "meta_eccentricity": 0.01820693,
        "meta_inclination": 102.0822,
        "meta_ra_of_asc_node": 62.064,
        "meta_arg_of_pericenter": 134.5626,
        "meta_mean_anomaly": 227.0546,
        "meta_ephemeris_type": 0,
        "meta_classification_type": "U",
        "meta_norad_cat_id": 31899,
        "meta_element_set_no": 999,
        "meta_rev_at_epoch": 67698,
        "meta_bstar": 0.0011378702,
        "meta_mean_motion_dot": 1.361e-05,
        "meta_mean_motion_ddot": 0,
        "tle_line1": "1 31899U 99025CLA 25356.42621034  .00001361  00000+0  11379-2 0  9991",
        "tle_line2": "2 31899 102.0822  62.0640 0182069 134.5626 227.0546 13.83542945676984"
      },
      "geometry": {
        "type": "Point",
        "coordinates": [
          -114.87829688849666,
          0.6557078976911684
        ]
      }
    },
    {
      "type": "Feature",
      "properties": {
        "norad_id": 31901,
        "name": "FENGYUN 1C DEB",
        "group": "fengyun-1c-debris",
        "lat": 13.06118520767644,
        "lon": -42.96327835608692,
        "alt_km": 991.5577507531825,
        "timestamp": "2025-12-24T16:52:41.817319+00:00",
        "meta_object_name": "FENGYUN 1C DEB",
        "meta_object_id": "1999-025CLC",
        "meta_epoch": "2025-12-24T03:02:02.442624",
        "meta_mean_motion": 13.94148189,
        "meta_eccentricity": 0.01318089,
        "meta_inclination": 98.6027,
        "meta_ra_of_asc_node": 318.5119,
        "meta_arg_of_pericenter": 157.993,
        "meta_mean_anomaly": 202.6965,
        "meta_ephemeris_type": 0,
        "meta_classification_type": "U",
        "meta_norad_cat_id": 31901,
        "meta_element_set_no": 999,
        "meta_rev_at_epoch": 63566,
        "meta_bstar": 0.00018296828,
        "meta_mean_motion_dot": 2.21e-06,
        "meta_mean_motion_ddot": 0,
        "tle_line1": "1 31901U 99025CLC 25358.12641716  .00000221  00000+0  18297-3 0  9994",
        "tle_line2": "2 31901  98.6027 318.5119 0131808 157.9930 202.6965 13.94148189635665"
      },
      "geometry": {
        "type": "Point",
        "coordinates": [
          -42.96327835608692,
          13.06118520767644
        ]
      }
    },
    {
      "type": "Feature",
      "properties": {
        "norad_id": 31902,
        "name": "FENGYUN 1C DEB",
        "group": "fengyun-1c-debris",
        "lat": -39.2230935905691,
        "lon": 151.1692504305723,
        "alt_km": 852.7429323927572,
        "timestamp": "2025-12-24T16:52:41.817330+00:00",
        "meta_object_name": "FENGYUN 1C DEB",
        "meta_object_id": "1999-025CLD",
        "meta_epoch": "2025-12-23T10:12:05.114880",
        "meta_mean_motion": 14.23289586,
        "meta_eccentricity": 0.01812156,
        "meta_inclination": 98.5083,
        "meta_ra_of_asc_node": 336.9513,
        "meta_arg_of_pericenter": 118.1318,
        "meta_mean_anomaly": 33.9215,
        "meta_ephemeris_type": 0,
        "meta_classification_type": "U",
        "meta_norad_cat_id": 31902,
        "meta_element_set_no": 999,
        "meta_rev_at_epoch": 64943,
        "meta_bstar": 0.00018583997,
        "meta_mean_motion_dot": 4.56e-06,
        "meta_mean_motion_ddot": 0,
        "tle_line1": "1 31902U 99025CLD 25357.42505920  .00000456  00000+0  18584-3 0  9992",
        "tle_line2": "2 31902  98.5083 336.9513 0181215 118.1318  33.9215 14.23289586649438"
      },
      "geometry": {
        "type": "Point",
        "coordinates": [
          151.1692504305723,
          -39.2230935905691
        ]
      }
    },
    {
      "type": "Feature",
      "properties": {
        "norad_id": 31903,
        "name": "FENGYUN 1C DEB",
        "group": "fengyun-1c-debris",
        "lat": -47.900137952910775,
        "lon": 158.1252429280365,
        "alt_km": 757.7116415369019,
        "timestamp": "2025-12-24T16:52:41.817340+00:00",
        "meta_object_name": "FENGYUN 1C DEB",
        "meta_object_id": "1999-025CLE",
        "meta_epoch": "2025-12-21T22:03:53.509248",
        "meta_mean_motion": 14.60560283,
        "meta_eccentricity": 0.01294815,
        "meta_inclination": 99.2744,
        "meta_ra_of_asc_node": 345.4297,
        "meta_arg_of_pericenter": 8.2938,
        "meta_mean_anomaly": 352.0358,
        "meta_ephemeris_type": 0,
        "meta_classification_type": "U",
        "meta_norad_cat_id": 31903,
        "meta_element_set_no": 999,
        "meta_rev_at_epoch": 97529,
        "meta_bstar": 0.00080363295,
        "meta_mean_motion_dot": 4.331e-05,
        "meta_mean_motion_ddot": 0,
        "tle_line1": "1 31903U 99025CLE 25355.91936932  .00004331  00000+0  80363-3 0  9996",
        "tle_line2": "2 31903  99.2744 345.4297 0129481   8.2938 352.0358 14.60560283975295"
      },
      "geometry": {
        "type": "Point",
        "coordinates": [
          158.1252429280365,
          -47.900137952910775
        ]
      }
    },
    {
      "type": "Feature",
      "properties": {
        "norad_id": 31905,
        "name": "FENGYUN 1C DEB",
        "group": "fengyun-1c-debris",
        "lat": -46.21405321328657,
        "lon": 145.94313739195064,
        "alt_km": 925.426860639549,
        "timestamp": "2025-12-24T16:52:41.817350+00:00",
        "meta_object_name": "FENGYUN 1C DEB",
        "meta_object_id": "1999-025CLG",
        "meta_epoch": "2025-12-23T21:24:10.053792",
        "meta_mean_motion": 14.3314398,
        "meta_eccentricity": 0.019679,
        "meta_inclination": 99.152,
        "meta_ra_of_asc_node": 334.7681,
        "meta_arg_of_pericenter": 61.6989,
        "meta_mean_anomaly": 300.3894,
        "meta_ephemeris_type": 0,
        "meta_classification_type": "U",
        "meta_norad_cat_id": 31905,
        "meta_element_set_no": 999,
        "meta_rev_at_epoch": 96784,
        "meta_bstar": 0.00068444,
        "meta_mean_motion_dot": 2.278e-05,
        "meta_mean_motion_ddot": 0,
        "tle_line1": "1 31905U 99025CLG 25357.89178303  .00002278  00000+0  68444-3 0  9991",
        "tle_line2": "2 31905  99.1520 334.7681 0196790  61.6989 300.3894 14.33143980967846"
      },
      "geometry": {
        "type": "Point",
        "coordinates": [
          145.94313739195064,
          -46.21405321328657
        ]
      }
    },
    {
      "type": "Feature",
      "properties": {
        "norad_id": 31906,
        "name": "FENGYUN 1C DEB",
        "group": "fengyun-1c-debris",
        "lat": -32.89758841755083,
        "lon": -53.97742994669088,
        "alt_km": 835.29021840116,
        "timestamp": "2025-12-24T16:52:41.817361+00:00",
        "meta_object_name": "FENGYUN 1C DEB",
        "meta_object_id": "1999-025CLH",
        "meta_epoch": "2025-12-23T08:06:59.919264",
        "meta_mean_motion": 14.24747155,
        "meta_eccentricity": 0.00502558,
        "meta_inclination": 98.6926,
        "meta_ra_of_asc_node": 130.3508,
        "meta_arg_of_pericenter": 93.4978,
        "meta_mean_anomaly": 321.6196,
        "meta_ephemeris_type": 0,
        "meta_classification_type": "U",
        "meta_norad_cat_id": 31906,
        "meta_element_set_no": 999,
        "meta_rev_at_epoch": 95280,
        "meta_bstar": 0.0022581621,
        "meta_mean_motion_dot": 5.289e-05,
        "meta_mean_motion_ddot": 0,
        "tle_line1": "1 31906U 99025CLH 25357.33819351  .00005289  00000+0  22582-2 0  9993",
        "tle_line2": "2 31906  98.6926 130.3508 0050255  93.4978 321.6196 14.24747155952800"
      },
      "geometry": {
        "type": "Point",
        "coordinates": [
          -53.97742994669088,
          -32.89758841755083
        ]
      }
    },
    {
      "type": "Feature",
      "properties": {
        "norad_id": 31910,
        "name": "FENGYUN 1C DEB",
        "group": "fengyun-1c-debris",
        "lat": -13.69311594620958,
        "lon": 20.699186115909683,
        "alt_km": 844.6773930249001,
        "timestamp": "2025-12-24T16:52:41.817371+00:00",
        "meta_object_name": "FENGYUN 1C DEB",
        "meta_object_id": "1999-025CLM",
        "meta_epoch": "2025-12-22T06:53:08.957472",
        "meta_mean_motion": 14.47708268,
        "meta_eccentricity": 0.02283236,
        "meta_inclination": 97.6648,
        "meta_ra_of_asc_node": 16.6258,
        "meta_arg_of_pericenter": 125.9935,
        "meta_mean_anomaly": 236.2666,
        "meta_ephemeris_type": 0,
        "meta_classification_type": "U",
        "meta_norad_cat_id": 31910,
        "meta_element_set_no": 999,
        "meta_rev_at_epoch": 64507,
        "meta_bstar": 0.00068637614,
        "meta_mean_motion_dot": 3.477e-05,
        "meta_mean_motion_ddot": 0,
        "tle_line1": "1 31910U 99025CLM 25356.28690923  .00003477  00000+0  68638-3 0  9993",
        "tle_line2": "2 31910  97.6648  16.6258 0228323 125.9935 236.2666 14.47708268645078"
      },
      "geometry": {
        "type": "Point",
        "coordinates": [
          20.699186115909683,
          -13.69311594620958
        ]
      }
    }
  ]
}